start=new Date('2021-10-29T00:00:00.000Z').valueOf();
sats=[{"ELEMENT_SET_NO":"999","COUNTRY_CODE":"US","OBJECT_NAME":"STARLINK-2600","NORAD_CAT_ID":"48387","TIME_SYSTEM":"UTC","MEAN_MOTION":"15.06408821","INCLINATION":"53.0568","APOAPSIS":"548.120","PERIAPSIS":"546.253","CENTER_NAME":"EARTH","RCS_SIZE":"MEDIUM","EPOCH":"2021-10-28T06:42:55.541664","PERIOD":"95.592","SEMIMAJOR_AXIS":"6925.322","BSTAR":"0.00007919600000","LAUNCH_DATE":"2021-05-04","MEAN_ANOMALY":"285.5109","MEAN_ELEMENT_THEORY":"SGP4","SITE":"AFETR","ARG_OF_PERICENTER":"74.6029","CLASSIFICATION_TYPE":"U","REF_FRAME":"TEME","OBJECT_TYPE":"PAYLOAD","FILE":"3189111","TLE_LINE1":"1 48387U 21038AL  21301.27980951  .00000899  00000-0  79196-4 0  9994","GP_ID":"188339562","DECAY_DATE":null,"ECCENTRICITY":"0.00013480","REV_AT_EPOCH":"2707","MEAN_MOTION_DDOT":"0.0000000000000","TLE_LINE2":"2 48387  53.0568 299.7119 0001348  74.6029 285.5109 15.06408821 27072","RA_OF_ASC_NODE":"299.7119","OBJECT_ID":"2021-038AL","MEAN_MOTION_DOT":"0.00000899","EPHEMERIS_TYPE":"0"},{"MEAN_MOTION_DOT":"0.00000425","EPHEMERIS_TYPE":"0","DECAY_DATE":null,"ECCENTRICITY":"0.00012350","REV_AT_EPOCH":"2768","MEAN_MOTION_DDOT":"0.0000000000000","TLE_LINE2":"2 48388  53.0553 299.1344 0001235  82.7318 277.3811 15.06402186 27681","RA_OF_ASC_NODE":"299.1344","OBJECT_ID":"2021-038AM","CLASSIFICATION_TYPE":"U","REF_FRAME":"TEME","OBJECT_TYPE":"PAYLOAD","FILE":"3189294","TLE_LINE1":"1 48388U 21038AM  21301.40607853  .00000425  00000-0  47426-4 0  9993","GP_ID":"188344206","MEAN_ELEMENT_THEORY":"SGP4","SITE":"AFETR","ARG_OF_PERICENTER":"82.7318","LAUNCH_DATE":"2021-05-04","MEAN_ANOMALY":"277.3811","EPOCH":"2021-10-28T09:44:45.184992","PERIOD":"95.592","SEMIMAJOR_AXIS":"6925.342","BSTAR":"0.00004742600000","TIME_SYSTEM":"UTC","MEAN_MOTION":"15.06402186","INCLINATION":"53.0553","APOAPSIS":"548.062","CENTER_NAME":"EARTH","PERIAPSIS":"546.352","RCS_SIZE":"MEDIUM","ELEMENT_SET_NO":"999","COUNTRY_CODE":"US","OBJECT_NAME":"STARLINK-2594","NORAD_CAT_ID":"48388"},{"MEAN_MOTION_DOT":"0.00001174","EPHEMERIS_TYPE":"0","ECCENTRICITY":"0.00014920","DECAY_DATE":null,"REV_AT_EPOCH":"2716","OBJECT_ID":"2021-038AN","RA_OF_ASC_NODE":"293.8887","TLE_LINE2":"2 48389  53.0527 293.8887 0001492  75.1402 284.9752 15.06404266 27163","MEAN_MOTION_DDOT":"0.0000000000000","OBJECT_TYPE":"PAYLOAD","REF_FRAME":"TEME","CLASSIFICATION_TYPE":"U","FILE":"3189402","GP_ID":"188367356","TLE_LINE1":"1 48389U 21038AN  21301.45998540  .00001174  00000-0  97673-4 0  9996","MEAN_ELEMENT_THEORY":"SGP4","SITE":"AFETR","ARG_OF_PERICENTER":"75.1402","LAUNCH_DATE":"2021-05-04","MEAN_ANOMALY":"284.9752","PERIOD":"95.592","EPOCH":"2021-10-28T11:02:22.738560","SEMIMAJOR_AXIS":"6925.335","BSTAR":"0.00009767300000","TIME_SYSTEM":"UTC","MEAN_MOTION":"15.06404266","APOAPSIS":"548.234","INCLINATION":"53.0527","RCS_SIZE":"LARGE","CENTER_NAME":"EARTH","PERIAPSIS":"546.167","COUNTRY_CODE":"US","ELEMENT_SET_NO":"999","NORAD_CAT_ID":"48389","OBJECT_NAME":"STARLINK-1904"},{"MEAN_MOTION":"15.06403979","TIME_SYSTEM":"UTC","RCS_SIZE":"LARGE","PERIAPSIS":"546.264","CENTER_NAME":"EARTH","APOAPSIS":"548.139","INCLINATION":"53.0550","COUNTRY_CODE":"US","ELEMENT_SET_NO":"999","NORAD_CAT_ID":"48390","OBJECT_NAME":"STARLINK-2586","LAUNCH_DATE":"2021-05-04","MEAN_ANOMALY":"288.6317","SEMIMAJOR_AXIS":"6925.336","PERIOD":"95.592","EPOCH":"2021-10-28T10:57:04.406400","BSTAR":"0.00013500000000","FILE":"3189402","REF_FRAME":"TEME","OBJECT_TYPE":"PAYLOAD","CLASSIFICATION_TYPE":"U","TLE_LINE1":"1 48390U 21038AP  21301.45630100  .00001730  00000-0  13500-3 0  9997","GP_ID":"188368107","SITE":"AFETR","MEAN_ELEMENT_THEORY":"SGP4","ARG_OF_PERICENTER":"71.4819","MEAN_MOTION_DOT":"0.00001730","EPHEMERIS_TYPE":"0","ECCENTRICITY":"0.00013540","DECAY_DATE":null,"OBJECT_ID":"2021-038AP","TLE_LINE2":"2 48390  53.0550 293.9150 0001354  71.4819 288.6317 15.06403979 28386","RA_OF_ASC_NODE":"293.9150","MEAN_MOTION_DDOT":"0.0000000000000","REV_AT_EPOCH":"2838"},{"SEMIMAJOR_AXIS":"6925.340","PERIOD":"95.592","EPOCH":"2021-10-28T09:16:13.835136","BSTAR":"-0.00005042300000","LAUNCH_DATE":"2021-05-04","MEAN_ANOMALY":"275.1390","ELEMENT_SET_NO":"999","COUNTRY_CODE":"US","OBJECT_NAME":"STARLINK-2607","NORAD_CAT_ID":"48391","MEAN_MOTION":"15.06402660","TIME_SYSTEM":"UTC","CENTER_NAME":"EARTH","PERIAPSIS":"546.352","RCS_SIZE":"LARGE","INCLINATION":"53.0554","APOAPSIS":"548.059","DECAY_DATE":null,"ECCENTRICITY":"0.00012330","TLE_LINE2":"2 48391  53.0554 294.2295 0001233  84.9740 275.1390 15.06402660 28370","MEAN_MOTION_DDOT":"0.0000000000000","RA_OF_ASC_NODE":"294.2295","OBJECT_ID":"2021-038AQ","REV_AT_EPOCH":"2837","MEAN_MOTION_DOT":"-0.00001032","EPHEMERIS_TYPE":"0","SITE":"AFETR","MEAN_ELEMENT_THEORY":"SGP4","ARG_OF_PERICENTER":"84.9740","FILE":"3189111","CLASSIFICATION_TYPE":"U","OBJECT_TYPE":"PAYLOAD","REF_FRAME":"TEME","TLE_LINE1":"1 48391U 21038AQ  21301.38627124 -.00001032  00000-0 -50423-4 0  9995","GP_ID":"188340631"},{"REV_AT_EPOCH":"2842","TLE_LINE2":"2 48392  53.0554 292.7534 0001124  85.1513 274.9604 15.06393305 28426","RA_OF_ASC_NODE":"292.7534","MEAN_MOTION_DDOT":"0.0000000000000","OBJECT_ID":"2021-038AR","DECAY_DATE":null,"ECCENTRICITY":"0.00011240","EPHEMERIS_TYPE":"0","MEAN_MOTION_DOT":"-0.00001767","ARG_OF_PERICENTER":"85.1513","MEAN_ELEMENT_THEORY":"SGP4","SITE":"AFETR","GP_ID":"188368359","TLE_LINE1":"1 48392U 21038AR  21301.71432260 -.00001767  00000-0 -99754-4 0  9993","CLASSIFICATION_TYPE":"U","REF_FRAME":"TEME","OBJECT_TYPE":"PAYLOAD","FILE":"3189402","BSTAR":"-0.00009975400000","PERIOD":"95.593","EPOCH":"2021-10-28T17:08:37.472640","SEMIMAJOR_AXIS":"6925.369","MEAN_ANOMALY":"274.9604","LAUNCH_DATE":"2021-05-04","OBJECT_NAME":"STARLINK-2605","NORAD_CAT_ID":"48392","ELEMENT_SET_NO":"999","COUNTRY_CODE":"US","INCLINATION":"53.0554","APOAPSIS":"548.012","PERIAPSIS":"546.456","CENTER_NAME":"EARTH","RCS_SIZE":"LARGE","TIME_SYSTEM":"UTC","MEAN_MOTION":"15.06393305"},{"MEAN_ANOMALY":"279.4559","LAUNCH_DATE":"2021-05-04","BSTAR":"0.00005277500000","EPOCH":"2021-10-28T17:03:18.864000","PERIOD":"95.593","SEMIMAJOR_AXIS":"6925.366","INCLINATION":"53.0562","APOAPSIS":"548.232","CENTER_NAME":"EARTH","PERIAPSIS":"546.230","RCS_SIZE":"LARGE","TIME_SYSTEM":"UTC","MEAN_MOTION":"15.06394269","OBJECT_NAME":"STARLINK-2602","NORAD_CAT_ID":"48393","ELEMENT_SET_NO":"999","COUNTRY_CODE":"US","EPHEMERIS_TYPE":"0","MEAN_MOTION_DOT":"0.00000505","REV_AT_EPOCH":"2842","MEAN_MOTION_DDOT":"0.0000000000000","TLE_LINE2":"2 48393  53.0562 292.7735 0001445  80.6593 279.4559 15.06394269 28422","RA_OF_ASC_NODE":"292.7735","OBJECT_ID":"2021-038AS","DECAY_DATE":null,"ECCENTRICITY":"0.00014450","TLE_LINE1":"1 48393U 21038AS  21301.71063500  .00000505  00000-0  52775-4 0  9990","GP_ID":"188368946","CLASSIFICATION_TYPE":"U","REF_FRAME":"TEME","OBJECT_TYPE":"PAYLOAD","FILE":"3189402","ARG_OF_PERICENTER":"80.6593","MEAN_ELEMENT_THEORY":"SGP4","SITE":"AFETR"},{"ARG_OF_PERICENTER":"74.5914","SITE":"AFETR","MEAN_ELEMENT_THEORY":"SGP4","GP_ID":"188368476","TLE_LINE1":"1 48394U 21038AT  21301.70694534 -.00000014  00000-0  17947-4 0  9995","FILE":"3189402","CLASSIFICATION_TYPE":"U","OBJECT_TYPE":"PAYLOAD","REF_FRAME":"TEME","TLE_LINE2":"2 48394  53.0552 292.7842 0001323  74.5914 285.5221 15.06399717 28422","MEAN_MOTION_DDOT":"0.0000000000000","RA_OF_ASC_NODE":"292.7842","OBJECT_ID":"2021-038AT","REV_AT_EPOCH":"2842","DECAY_DATE":null,"ECCENTRICITY":"0.00013230","EPHEMERIS_TYPE":"0","MEAN_MOTION_DOT":"-0.00000014","OBJECT_NAME":"STARLINK-2573","NORAD_CAT_ID":"48394","ELEMENT_SET_NO":"999","COUNTRY_CODE":"US","PERIAPSIS":"546.298","CENTER_NAME":"EARTH","RCS_SIZE":"LARGE","INCLINATION":"53.0552","APOAPSIS":"548.131","MEAN_MOTION":"15.06399717","TIME_SYSTEM":"UTC","BSTAR":"0.00001794700000","SEMIMAJOR_AXIS":"6925.349","PERIOD":"95.592","EPOCH":"2021-10-28T16:58:00.077376","MEAN_ANOMALY":"285.5221","LAUNCH_DATE":"2021-05-04"},{"MEAN_ELEMENT_THEORY":"SGP4","SITE":"AFETR","ARG_OF_PERICENTER":"83.2073","OBJECT_TYPE":"PAYLOAD","REF_FRAME":"TEME","CLASSIFICATION_TYPE":"U","FILE":"3189402","TLE_LINE1":"1 48395U 21038AU  21301.69126143  .00000287  00000-0  38140-4 0  9999","GP_ID":"188368355","ECCENTRICITY":"0.00012680","DECAY_DATE":null,"REV_AT_EPOCH":"2842","OBJECT_ID":"2021-038AU","MEAN_MOTION_DDOT":"0.0000000000000","TLE_LINE2":"2 48395  53.0553 292.8543 0001268  83.2073 276.9060 15.06396773 28428","RA_OF_ASC_NODE":"292.8543","MEAN_MOTION_DOT":"0.00000287","EPHEMERIS_TYPE":"0","COUNTRY_CODE":"US","ELEMENT_SET_NO":"999","NORAD_CAT_ID":"48395","OBJECT_NAME":"STARLINK-2574","TIME_SYSTEM":"UTC","MEAN_MOTION":"15.06396773","APOAPSIS":"548.102","INCLINATION":"53.0553","RCS_SIZE":"LARGE","PERIAPSIS":"546.345","CENTER_NAME":"EARTH","EPOCH":"2021-10-28T16:35:24.987552","PERIOD":"95.592","SEMIMAJOR_AXIS":"6925.358","BSTAR":"0.00003814000000","LAUNCH_DATE":"2021-05-04","MEAN_ANOMALY":"276.9060"},{"SITE":"AFETR","MEAN_ELEMENT_THEORY":"SGP4","ARG_OF_PERICENTER":"81.2601","FILE":"3189402","CLASSIFICATION_TYPE":"U","REF_FRAME":"TEME","OBJECT_TYPE":"PAYLOAD","GP_ID":"188368714","TLE_LINE1":"1 48396U 21038AV  21301.70326504  .00000840  00000-0  75308-4 0  9997","DECAY_DATE":null,"ECCENTRICITY":"0.00012290","TLE_LINE2":"2 48396  53.0545 292.7949 0001229  81.2601 278.8527 15.06393559 28429","MEAN_MOTION_DDOT":"0.0000000000000","RA_OF_ASC_NODE":"292.7949","OBJECT_ID":"2021-038AV","REV_AT_EPOCH":"2842","MEAN_MOTION_DOT":"0.00000840","EPHEMERIS_TYPE":"0","ELEMENT_SET_NO":"999","COUNTRY_CODE":"US","OBJECT_NAME":"STARLINK-2575","NORAD_CAT_ID":"48396","MEAN_MOTION":"15.06393559","TIME_SYSTEM":"UTC","PERIAPSIS":"546.382","CENTER_NAME":"EARTH","RCS_SIZE":"LARGE","INCLINATION":"53.0545","APOAPSIS":"548.084","SEMIMAJOR_AXIS":"6925.368","PERIOD":"95.593","EPOCH":"2021-10-28T16:52:42.099456","BSTAR":"0.00007530800000","LAUNCH_DATE":"2021-05-04","MEAN_ANOMALY":"278.8527"}];
